NORAD_CAT_ID,OBJECT_NAME,OBJECT_TYPE,EPOCH,MEAN_MOTION,ECCENTRICITY,INCLINATION,RA_OF_ASC_NODE,ARG_OF_PERICENTER,MEAN_ANOMALY,BSTAR,MEAN_MOTION_DOT,MEAN_MOTION_DDOT,TLE_LINE0,TLE_LINE1,TLE_LINE2,SEMIMAJOR_AXIS,PERIOD,APOGEE,PERIGEE,DECAYED
51798.0,STARLINK-3634,PAYLOAD,2022-06-06 12:00:02,15.08837708,0.000173,53.216,29.1168,56.1941,218.6771,0.00060842,9.408e-05,0.0,0 STARLINK-3634,1 51798U 22017AG  22157.50002315  .00009408  00000-0  60842-3 0  9999,2 51798  53.2160  29.1168 0001730  56.1941 218.6771 15.08837708 16807,6917.887,95.438,540.9490000000002,538.556,0.0
51798.0,STARLINK-3634,PAYLOAD,2022-06-06 14:00:01,15.08842729,0.0001739,53.216,28.7426,57.387,310.3196,-0.00013818,-2.487e-05,0.0,0 STARLINK-3634,1 51798U 22017AG  22157.58334491 -.00002487  00000-0 -13818-3 0  9993,2 51798  53.2160  28.7426 0001739  57.3870 310.3196 15.08842729  1301,6917.871999999999,95.437,540.94,538.534,0.0
51798.0,STARLINK-3634,PAYLOAD,2022-06-06 22:00:00,15.08835081,0.0001868,53.2162,27.2479,51.8912,327.4167,-0.00060135,-9.845e-05,0.0,0 STARLINK-3634,1 51798U 22017AG  22157.91667824 -.00009845  00000-0 -60135-3 0  9998,2 51798  53.2162  27.2479 0001868  51.8912 327.4167 15.08835081  1304,6917.895,95.438,541.053,538.4680000000002,0.0
51798.0,STARLINK-3634,PAYLOAD,2022-06-07 14:00:01,15.08841308,0.0001699,53.2166,24.2533,57.1626,345.3296,0.00084572,0.00013198,0.0,0 STARLINK-3634,1 51798U 22017AG  22158.58334491  .00013198  00000-0  84572-3 0  9998,2 51798  53.2166  24.2533 0001699  57.1626 345.3296 15.08841308 16979,6917.876,95.437,540.9169999999998,538.566,0.0
51798.0,STARLINK-3634,PAYLOAD,2022-06-07 22:00:00,15.08838279,0.0001807,53.2166,22.7587,51.0838,3.0185,-0.00085564,-0.00013879,0.0,0 STARLINK-3634,1 51798U 22017AG  22158.91667824 -.00013879  00000-0 -85564-3 0  9994,2 51798  53.2166  22.7587 0001807  51.0838   3.0185 15.08838279  1309,6917.886,95.438,541.001,538.501,0.0
51798.0,STARLINK-3634,PAYLOAD,2022-06-08 06:00:02,15.0885283,0.0001746,53.2165,21.2616,50.4745,15.2731,-0.0014762,-0.00023713,0.0,0 STARLINK-3634,1 51798U 22017AG  22159.25002315 -.00023713  00000-0 -14762-2 0  9999,2 51798  53.2165  21.2616 0001746  50.4745  15.2731 15.08852830 17079,6917.840999999999,95.437,540.914,538.498,0.0
51798.0,STARLINK-3634,PAYLOAD,2022-06-08 14:00:01,15.08844301,0.0001683,53.2169,19.7642,58.1502,19.1306,-6.4167e-05,-1.309e-05,0.0,0 STARLINK-3634,1 51798U 22017AG  22159.58334491 -.00001309  00000-0 -64167-4 0  9991,2 51798  53.2169  19.7642 0001683  58.1502  19.1306 15.08844301  1304,6917.8669999999975,95.437,540.8969999999998,538.568,0.0
51798.0,STARLINK-3634,PAYLOAD,2022-06-08 22:00:01,15.08826386,0.0001891,53.2168,18.2697,54.4559,34.4888,-0.00061346,-0.00010035,0.0,0 STARLINK-3634,1 51798U 22017AG  22159.91668981 -.00010035  00000-0 -61346-3 0  9993,2 51798  53.2168  18.2697 0001891  54.4559  34.4888 15.08826386  1307,6917.922,95.438,541.095,538.479,0.0
51798.0,STARLINK-3634,PAYLOAD,2022-06-09 06:00:00,15.08841921,0.0001819,53.2165,16.7726,55.1662,45.2865,-0.0017715,-0.00028373,0.0,0 STARLINK-3634,1 51798U 22017AG  22160.25001157 -.00028373  00000-0 -17715-2 0  9992,2 51798  53.2165  16.7726 0001819  55.1662  45.2865 15.08841921 17228,6917.875,95.437,540.998,538.481,0.0
51798.0,STARLINK-3634,PAYLOAD,2022-06-09 14:00:01,15.08827755,0.0001743,53.2168,15.2753,62.0741,49.9645,0.0016769,0.00026492,0.0,0 STARLINK-3634,1 51798U 22017AG  22160.58334491  .00026492  00000-0  16769-2 0  9994,2 51798  53.2168  15.2753 0001743  62.0741  49.9645 15.08827755  1304,6917.918000000002,95.438,540.989,538.577,0.0
51798.0,STARLINK-3634,PAYLOAD,2022-06-09 22:00:00,15.08835161,0.0001882,53.2165,13.7809,56.3414,67.2897,0.00019866,2.875e-05,0.0,0 STARLINK-3634,1 51798U 22017AG  22160.91667824  .00002875  00000-0  19866-3 0  9991,2 51798  53.2165  13.7809 0001882  56.3414  67.2897 15.08835161 17324,6917.895,95.438,541.062,538.4580000000002,0.0
51798.0,STARLINK-3634,PAYLOAD,2022-06-10 14:00:01,15.08856055,0.0001698,53.2163,10.7861,63.4235,83.4013,-0.0016884,-0.0002707,0.0,0 STARLINK-3634,1 51798U 22017AG  22161.58334491 -.00027070  00000-0 -16884-2 0  9998,2 51798  53.2163  10.7861 0001698  63.4235  83.4013 15.08856055  1308,6917.831,95.437,540.871,538.5219999999998,0.0
51798.0,STARLINK-3634,PAYLOAD,2022-06-10 22:00:00,15.08821135,0.0001785,53.216,9.2916,55.5416,102.8895,0.00085645,0.00013362,0.0,0 STARLINK-3634,1 51798U 22017AG  22161.91667824  .00013362  00000-0  85645-3 0  9993,2 51798  53.2160   9.2916 0001785  55.5416 102.8895 15.08821135  1304,6917.938,95.439,541.038,538.568,0.0
51798.0,STARLINK-3634,PAYLOAD,2022-06-11 04:00:00,15.08844862,0.000175,53.2155,8.1687,54.6372,22.4724,-0.0010139,-0.0001639,0.0,0 STARLINK-3634,1 51798U 22017AG  22162.16667824 -.00016390  00000-0 -10139-2 0  9992,2 51798  53.2155   8.1687 0001750  54.6372  22.4724 15.08844862 17514,6917.866,95.437,540.941,538.52,0.0
51798.0,STARLINK-3634,PAYLOAD,2022-06-11 22:00:00,15.088406699999998,0.000177,53.2155,4.8025,54.9115,138.293,-0.0012587,-0.00020265,0.0,0 STARLINK-3634,1 51798U 22017AG  22162.91667824 -.00020265  00000-0 -12587-2 0  9990,2 51798  53.2155   4.8025 0001770  54.9115 138.2930 15.08840670 17623,6917.878000000002,95.438,540.9680000000002,538.519,0.0
51798.0,STARLINK-3634,PAYLOAD,2022-06-12 14:00:01,15.08838739,0.0001638,53.2154,1.8078,61.6546,154.7175,0.00061395,9.496e-05,0.0,0 STARLINK-3634,1 51798U 22017AG  22163.58334491  .00009496  00000-0  61395-3 0  9998,2 51798  53.2154   1.8078 0001638  61.6546 154.7175 15.08838739 17721,6917.884,95.438,540.882,538.616,0.0
51798.0,STARLINK-3634,PAYLOAD,2022-06-12 22:00:00,15.08830527,0.0001779,53.2154,0.313,53.2836,174.6909,0.001696,0.000268,0.0,0 STARLINK-3634,1 51798U 22017AG  22163.91667824  .00026800  00000-0  16960-2 0  9999,2 51798  53.2154   0.3130 0001779  53.2836 174.6909 15.08830527  1309,6917.909000000002,95.438,541.005,538.544,0.0
51798.0,STARLINK-3634,PAYLOAD,2022-06-13 14:00:01,15.08844566,0.0001583,53.2156,357.3182,58.423,192.7452,0.00061184,9.464e-05,0.0,0 STARLINK-3634,1 51798U 22017AG  22164.58334491  .00009464  00000-0  61184-3 0  9990,2 51798  53.2156 357.3182 0001583  58.4230 192.7452 15.08844566  1303,6917.866,95.437,540.827,538.636,0.0
51798.0,STARLINK-3634,PAYLOAD,2022-06-13 22:00:00,15.08842108,0.0001727,53.2156,355.8233,50.0473,212.728,0.00033883,5.109e-05,0.0,0 STARLINK-3634,1 51798U 22017AG  22164.91667824  .00005109  00000-0  33883-3 0  9993,2 51798  53.2156 355.8233 0001727  50.0473 212.7280 15.08842108 17927,6917.874,95.437,540.934,538.544,0.0
51798.0,STARLINK-3634,PAYLOAD,2022-06-14 14:00:01,15.08849636,0.0001598,53.216,352.8285,56.8573,229.1093,-0.002175,-0.00034746,0.0,0 STARLINK-3634,1 51798U 22017AG  22165.58334491 -.00034746  00000-0 -21750-2 0  9998,2 51798  53.2160 352.8285 0001598  56.8573 229.1093 15.08849636  1309,6917.851,95.437,540.821,538.61,0.0
51798.0,STARLINK-3634,PAYLOAD,2022-06-14 22:00:00,15.08805314,0.0001784,53.216,351.3337,50.5959,246.9611,0.0022011999999999,0.00034885,0.0,0 STARLINK-3634,1 51798U 22017AG  22165.91667824  .00034885  00000-0  22012-2 0  9998,2 51798  53.2160 351.3337 0001784  50.5959 246.9611 15.08805314 18077,6917.986,95.44,541.086,538.617,0.0
51798.0,STARLINK-3634,PAYLOAD,2022-06-15 12:00:02,15.08805855,0.0001526,53.2163,348.7128,56.7329,171.1361,0.0018175,0.00028729,0.0,0 STARLINK-3634,1 51798U 22017AG  22166.50002315  .00028729  00000-0  18175-2 0  9997,2 51798  53.2163 348.7128 0001526  56.7329 171.1361 15.08805855 18162,6917.985,95.44,540.905,538.794,0.0
51798.0,STARLINK-3634,PAYLOAD,2022-06-15 14:00:01,15.08824524,0.0001541999999999,53.2164,348.3392,55.3474,265.3439,-0.00018031,-3.155e-05,0.0,0 STARLINK-3634,1 51798U 22017AG  22166.58334491 -.00003155  00000-0 -18031-3 0  9998,2 51798  53.2164 348.3392 0001542  55.3474 265.3439 15.08824524  1300,6917.928000000001,95.439,540.859,538.726,0.0
51798.0,STARLINK-3634,PAYLOAD,2022-06-15 22:00:00,15.08804841,0.0001705,53.2163,346.8443,48.2553,284.0192,0.0032161,0.00051219,0.0,0 STARLINK-3634,1 51798U 22017AG  22166.91667824  .00051219  00000-0  32161-2 0  9995,2 51798  53.2163 346.8443 0001705  48.2553 284.0192 15.08804841  1303,6917.988,95.44,541.0319999999998,538.673,0.0
51798.0,STARLINK-3634,PAYLOAD,2022-06-16 02:00:01,15.08843844,0.0001649,53.216,346.0954,47.9055,110.1512,-3.6379e-05,-8.67e-06,0.0,0 STARLINK-3634,1 51798U 22017AG  22167.08334491 -.00000867  00000-0 -36379-4 0  9997,2 51798  53.2160 346.0954 0001649  47.9055 110.1512 15.08843844  1300,6917.869000000002,95.437,540.874,538.5930000000002,0.0
51798.0,STARLINK-3634,PAYLOAD,2022-06-19 14:00:01,15.08871286,0.0001648,53.2156,330.3833,56.3666,43.4046,-0.0043575,-0.00069033,0.0,0 STARLINK-3634,1 51798U 22017AG  22170.58334491 -.00069033  00000-0 -43575-2 0  9990,2 51798  53.2156 330.3833 0001648  56.3666  43.4046 15.08871286  1309,6917.785,95.436,540.79,538.51,0.0
51798.0,STARLINK-3634,PAYLOAD,2022-06-19 22:00:00,15.08811188,0.00017,53.2152,328.8880000000001,47.6894,63.6943,0.0033267,0.00053013,0.0,0 STARLINK-3634,1 51798U 22017AG  22170.91667824  .00053013  00000-0  33267-2 0  9992,2 51798  53.2152 328.8880 0001700  47.6894  63.6943 15.08811188  1309,6917.968000000003,95.439,541.01,538.6569999999998,0.0
51798.0,STARLINK-3634,PAYLOAD,2022-06-20 04:00:01,15.08840985,0.0001598,53.2154,327.7641,52.3173,337.8129,-0.00021292,-3.675e-05,0.0,0 STARLINK-3634,1 51798U 22017AG  22171.16668981 -.00003675  00000-0 -21292-3 0  9992,2 51798  53.2154 327.7641 0001598  52.3173 337.8129 15.08840985 18871,6917.877,95.437,540.8480000000002,538.637,0.0
51798.0,STARLINK-3634,PAYLOAD,2022-06-20 14:00:01,15.08875023,0.0001631999999999,53.2154,325.8941,52.9417,81.6132,-0.0039586,-0.00062801,0.0,0 STARLINK-3634,1 51798U 22017AG  22171.58334491 -.00062801  00000-0 -39586-2 0  9994,2 51798  53.2154 325.8941 0001632  52.9417  81.6132 15.08875023  1308,6917.773,95.435,540.7669999999998,538.509,0.0
